NORAD_CAT_ID,OBJECT_NAME,OBJECT_TYPE,EPOCH,MEAN_MOTION,ECCENTRICITY,INCLINATION,RA_OF_ASC_NODE,ARG_OF_PERICENTER,MEAN_ANOMALY,BSTAR,MEAN_MOTION_DOT,MEAN_MOTION_DDOT,TLE_LINE0,TLE_LINE1,TLE_LINE2,SEMIMAJOR_AXIS,PERIOD,APOGEE,PERIGEE,DECAYED
52378.0,STARLINK-3806,PAYLOAD,2023-04-10 12:35:34,15.08841395,0.0001225,53.216,286.3427,93.7756,266.3376,0.00018041,2.585e-05,0.0,0 STARLINK-3806,1 52378U 22045AZ  23100.52469912  .00002585  00000-0  18041-3 0  9999,2 52378  53.2160 286.3427 0001225  93.7756 266.3376 15.08841395 55279,6917.876,95.437,540.589,538.894,0.0
52378.0,STARLINK-3806,PAYLOAD,2023-04-10 18:57:06,15.08848152,0.0001249,53.2159,285.1535,94.534,265.5795,0.00025936,3.843e-05,0.0,0 STARLINK-3806,1 52378U 22045AZ  23100.78965511  .00003843  00000-0  25936-3 0  9992,2 52378  53.2159 285.1535 0001249  94.5340 265.5795 15.08848152 55317,6917.855,95.437,540.585,538.856,0.0
52378.0,STARLINK-3806,PAYLOAD,2023-04-11 12:26:20,15.08840253,0.0001067,53.2158,281.883,86.2352,273.8762,0.00010495,1.383e-05,0.0,0 STARLINK-3806,1 52378U 22045AZ  23101.51829822  .00001383  00000-0  10495-3 0  9999,2 52378  53.2158 281.8830 0001067  86.2352 273.8762 15.08840253 55428,6917.88,95.438,540.483,539.006,0.0
52378.0,STARLINK-3806,PAYLOAD,2023-04-11 18:47:53,15.0884366,0.0001102,53.2159,280.6939,84.9252,275.1866,6.9611e-06,-1.77e-06,0.0,0 STARLINK-3806,1 52378U 22045AZ  23101.78325603 -.00000177  00000-0  69611-5 0  9993,2 52378  53.2159 280.6939 0001102  84.9252 275.1866 15.08843660 55469,6917.869,95.437,540.497,538.972,0.0
52378.0,STARLINK-3806,PAYLOAD,2023-04-12 12:17:08,15.08853808,5.38e-05,53.2195,277.4241,78.3198,281.7855,-0.00023801,-4.075e-05,0.0,0 STARLINK-3806,1 52378U 22045AZ  23102.51190053 -.00004075  00000-0 -23801-3 0  9995,2 52378  53.2195 277.4241 0000538  78.3198 281.7855 15.08853808 55575,6917.838,95.437,540.075,539.331,0.0
52378.0,STARLINK-3806,PAYLOAD,2023-04-12 18:38:40,15.08840513,8.15e-05,53.2162,276.233,81.9875,278.121,-1.0699e-05,-4.58e-06,0.0,0 STARLINK-3806,1 52378U 22045AZ  23102.77686093 -.00000458  00000-0 -10699-4 0  9990,2 52378  53.2162 276.2330 0000815  81.9875 278.1210 15.08840513 55614,6917.879,95.438,540.308,539.18,0.0
52378.0,STARLINK-3806,PAYLOAD,2023-04-13 10:32:32,15.0883833,0.0001183,53.2171,273.2593,91.4978,268.6149,6.8353e-05,8e-06,0.0,0 STARLINK-3806,1 52378U 22045AZ  23103.43926191  .00000800  00000-0  68353-4 0  9999,2 52378  53.2171 273.2593 0001183  91.4978 268.6149 15.08838330 55711,6917.885,95.438,540.569,538.932,0.0
52378.0,STARLINK-3806,PAYLOAD,2023-04-13 21:40:13,15.08848669,0.0001387,53.2171,271.1759,93.6193,266.4958,0.0001301,1.784e-05,0.0,0 STARLINK-3806,1 52378U 22045AZ  23103.90293250  .00001784  00000-0  13010-3 0  9995,2 52378  53.2171 271.1759 0001387  93.6193 266.4958 15.08848669 55788,6917.854,95.437,540.678,538.759,0.0
52378.0,STARLINK-3806,PAYLOAD,2023-04-14 13:34:05,15.0883921,0.0001188,53.218,268.2041,95.3885,264.7243,6.7234e-05,7.82e-06,0.0,0 STARLINK-3806,1 52378U 22045AZ  23104.56534254  .00000782  00000-0  67234-4 0  9995,2 52378  53.2180 268.2041 0001188  95.3885 264.7243 15.08839210 55886,6917.883,95.438,540.57,538.926,0.0
52378.0,STARLINK-3806,PAYLOAD,2023-04-15 03:52:33,15.08840052,0.0001162,53.2168,265.5274,92.8723,267.2402,6.7909e-05,7.93e-06,0.0,0 STARLINK-3806,1 52378U 22045AZ  23105.16150035  .00000793  00000-0  67909-4 0  9994,2 52378  53.2168 265.5274 0001162  92.8723 267.2402 15.08840052 55976,6917.88,95.438,540.549,538.941,0.0
52378.0,STARLINK-3806,PAYLOAD,2023-04-15 19:46:24,15.08856226,0.0001142,53.2172,262.5521,93.9045,266.2077,0.00012175,1.651e-05,0.0,0 STARLINK-3806,1 52378U 22045AZ  23105.82388890  .00001651  00000-0  12175-3 0  9997,2 52378  53.2172 262.5521 0001142  93.9045 266.2077 15.08856226 56079,6917.831,95.437,540.486,538.906,0.0
52378.0,STARLINK-3806,PAYLOAD,2023-04-16 03:43:21,15.08837196,0.0001356,53.2168,261.0655,79.7176,280.3969,2.4585e-05,1.03e-06,0.0,0 STARLINK-3806,1 52378U 22045AZ  23106.15510444  .00000103  00000-0  24585-4 0  9996,2 52378  53.2168 261.0655 0001356  79.7176 280.3969 15.08837196 56128,6917.889,95.438,540.692,538.816,0.0
52378.0,STARLINK-3806,PAYLOAD,2023-04-16 13:15:40,15.08837185,0.0001629,53.2164,259.2847,65.6936,294.4226,-2.7688e-06,-3.32e-06,0.0,0 STARLINK-3806,1 52378U 22045AZ  23106.55254779 -.00000332  00000-0 -27688-5 0  9990,2 52378  53.2164 259.2847 0001629  65.6936 294.4226 15.08837185 56183,6917.889,95.438,540.881,538.627,0.0
52378.0,STARLINK-3806,PAYLOAD,2023-04-16 19:37:12,15.08849505,0.0001596,53.2162,258.0943,75.6275,284.4894,-5.1788e-05,-1.112e-05,0.0,0 STARLINK-3806,1 52378U 22045AZ  23106.81750092 -.00001112  00000-0 -51788-4 0  9992,2 52378  53.2162 258.0943 0001596  75.6275 284.4894 15.08849505 56229,6917.851,95.437,540.82,538.612,0.0
52378.0,STARLINK-3806,PAYLOAD,2023-04-17 03:34:08,15.08837998,0.0001226,53.2151,256.6079,63.9077,296.2041,7.4867e-05,9.04e-06,0.0,0 STARLINK-3806,1 52378U 22045AZ  23107.14870506  .00000904  00000-0  74867-4 0  9991,2 52378  53.2151 256.6079 0001226  63.9077 296.2041 15.08837998 56274,6917.887,95.438,540.6,538.903,0.0
52378.0,STARLINK-3806,PAYLOAD,2023-04-17 13:06:26,15.0883365,8.97e-05,53.2145,254.8236,49.8727,310.2343,0.00021862,3.193e-05,0.0,0 STARLINK-3806,1 52378U 22045AZ  23107.54614447  .00003193  00000-0  21862-3 0  9994,2 52378  53.2145 254.8236 0000897  49.8727 310.2343 15.08833650 56330,6917.9,95.438,540.385,539.144,0.0
52378.0,STARLINK-3806,PAYLOAD,2023-04-17 16:17:12,15.0885422,0.0001052,53.2164,254.2264,70.4535,289.6571,9.3872e-05,1.207e-05,0.0,0 STARLINK-3806,1 52378U 22045AZ  23107.67861438  .00001207  00000-0  93872-4 0  9997,2 52378  53.2164 254.2264 0001052  70.4535 289.6571 15.08854220 56357,6917.837,95.437,540.43,538.974,0.0
52378.0,STARLINK-3806,PAYLOAD,2023-04-18 09:46:28,15.08831597,0.0001533,53.2152,250.9573,57.2174,302.8965,4.183e-05,3.78e-06,0.0,0 STARLINK-3806,1 52378U 22045AZ  23108.40726973  .00000378  00000-0  41830-4 0  9998,2 52378  53.2152 250.9573 0001533  57.2174 302.8965 15.08831597 56465,6917.906,95.438,540.832,538.711,0.0
52378.0,STARLINK-3806,PAYLOAD,2023-04-18 16:08:00,15.08838735,0.0001155,53.2154,249.7687,61.5498,298.5611,0.00013516,1.864e-05,0.0,0 STARLINK-3806,1 52378U 22045AZ  23108.67222602  .00001864  00000-0  13516-3 0  9997,2 52378  53.2154 249.7687 0001155  61.5498 298.5611 15.08838735 56501,6917.884,95.438,540.548,538.95,0.0
52378.0,STARLINK-3806,PAYLOAD,2023-04-18 20:54:09,15.08850427,0.0001124,53.2169,248.8736,67.1307,292.9804,0.0002166,3.162e-05,0.0,0 STARLINK-3806,1 52378U 22045AZ  23108.87093971  .00003162  00000-0  21660-3 0  9996,2 52378  53.2169 248.8736 0001124  67.1307 292.9804 15.08850427 56536,6917.849,95.437,540.491,538.936,0.0
52378.0,STARLINK-3806,PAYLOAD,2023-04-19 09:37:14,15.08835579,0.0001002,53.2165,246.4957,61.4088,298.7005,-4.6126e-05,-1.022e-05,0.0,0 STARLINK-3806,1 52378U 22045AZ  23109.40086686 -.00001022  00000-0 -46126-4 0  9991,2 52378  53.2165 246.4957 0001002  61.4088 298.7005 15.08835579 56616,6917.894,95.438,540.452,539.066,0.0
52378.0,STARLINK-3806,PAYLOAD,2023-04-19 15:58:46,15.08855213,0.0002318,53.2166,245.3053,86.9268,273.1989,0.00030648,4.595e-05,0.0,0 STARLINK-3806,1 52378U 22045AZ  23109.66581961  .00004595  00000-0  30648-3 0  9992,2 52378  53.2166 245.3053 0002318  86.9268 273.1989 15.08855213 56654,6917.834,95.437,541.302,538.095,0.0
52378.0,STARLINK-3806,PAYLOAD,2023-04-20 01:31:05,15.08855784,0.0001049,53.2163,243.5218,61.0323,299.0774,0.00032249,4.851e-05,0.0,0 STARLINK-3806,1 52378U 22045AZ  23110.06325654  .00004851  00000-0  32249-3 0  9997,2 52378  53.2163 243.5218 0001049  61.0323 299.0774 15.08855784 56719,6917.832,95.437,540.423,538.971,0.0
52378.0,STARLINK-3806,PAYLOAD,2023-04-20 09:28:01,15.0884118,0.0001019,53.2168,242.0341,61.6159,298.4936,0.00019357,2.794e-05,0.0,0 STARLINK-3806,1 52378U 22045AZ  23110.39446524  .00002794  00000-0  19357-3 0  9992,2 52378  53.2168 242.0341 0001019  61.6159 298.4936 15.08841180 56768,6917.877,95.437,540.447,539.037,0.0
52378.0,STARLINK-3806,PAYLOAD,2023-04-20 15:49:34,15.08845827,9.75e-05,53.2166,240.8475,72.4306,287.6793,0.00021416,3.123e-05,0.0,0 STARLINK-3806,1 52378U 22045AZ  23110.65942347  .00003123  00000-0  21416-3 0  9991,2 52378  53.2166 240.8475 0000975  72.4306 287.6793 15.08845827 56802,6917.863,95.437,540.402,539.053,0.0
52378.0,STARLINK-3806,PAYLOAD,2023-04-20 19:00:20,15.08852966,0.0001182,53.2169,240.2504,71.7616,288.3505,0.00038033,5.772e-05,0.0,0 STARLINK-3806,1 52378U 22045AZ  23110.79190023  .00005772  00000-0  38033-3 0  9997,2 52378  53.2169 240.2504 0001182  71.7616 288.3505 15.08852966 56822,6917.841,95.437,540.523,538.888,0.0
52378.0,STARLINK-3806,PAYLOAD,2023-04-21 18:51:07,15.08847965,0.0001064,53.2153,235.7892,89.6215,270.4899,0.00065043,0.00010081,0.0,0 STARLINK-3806,1 52378U 22045AZ  23111.78550524  .00010081  00000-0  65043-3 0  9993,2 52378  53.2153 235.7892 0001064  89.6215 270.4899 15.08847965 56973,6917.856,95.437,540.457,538.985,0.0
52378.0,STARLINK-3806,PAYLOAD,2023-04-21 20:26:30,15.088554,0.0001017,53.2152,235.492,94.919,265.1919,0.0010542,0.00016536,0.0,0 STARLINK-3806,1 52378U 22045AZ  23111.85174443  .00016536  00000-0  10542-2 0  9997,2 52378  53.2152 235.4920 0001017  94.9190 265.1919 15.08855400 56988,6917.833,95.437,540.402,538.995,0.0
52378.0,STARLINK-3806,PAYLOAD,2023-04-22 07:34:13,15.08849458,0.0001921,53.2142,233.4165,55.7016,304.4158,0.00076385,0.00011893,0.0,0 STARLINK-3806,1 52378U 22045AZ  23112.31542947  .00011893  00000-0  76385-3 0  9996,2 52378  53.2142 233.4165 0001921  55.7016 304.4158 15.08849458 57059,6917.851,95.437,541.045,538.388,0.0
52378.0,STARLINK-3806,PAYLOAD,2023-04-22 20:17:17,15.0886146,0.0001302,53.2137,231.0306,101.925,258.1888,0.00090448,0.00014145,0.0,0 STARLINK-3806,1 52378U 22045AZ  23112.84534242  .00014145  00000-0  90448-3 0  9992,2 52378  53.2137 231.0306 0001302 101.9250 258.1888 15.08861460 57132,6917.815,95.436,540.58,538.779,0.0
